ONEWEB-0233             
1 48795U 21045AE  24214.88406237  .00000193  00000+0  47850-3 0  9995
2 48795  87.9024  35.4127 0001467  88.3288 271.8010 13.15551440154325
ONEWEB-0248             
1 48798U 21045AH  24214.90072456  .00000007  00000+0 -14345-4 0  9992
2 48798  87.9021  35.3512 0000989  91.8535 268.2709 13.15549264154443
ONEWEB-0225             
1 48799U 21045AJ  24214.92290480 -.00000111  00000+0 -32808-3 0  9994
2 48799  87.9024  35.3609 0001394  80.0355 280.0932 13.15549203154459
ONEWEB-0216             
1 48801U 21045AL  24214.90230996 -.00000005  00000+0 -46586-4 0  9993
2 48801  87.9022  35.3781 0001897  80.6448 279.4896 13.15549324154331
ONEWEB-0239             
1 48802U 21045AM  24214.90705466 -.00000072  00000+0 -22432-3 0  9990
2 48802  87.9031  35.3568 0000815  90.7610 269.3613 13.15550081154378
